CZ-4B R/B               
1 28415U 04035C   25262.06029568  .00006268  00000+0  24669-3 0  9996
2 28415  97.3737 293.5878 0033855 213.3883 146.5221 15.25455301153711
CZ-2C R/B               
1 28480U 04046B   25262.18126312  .00000207  00000+0  92954-4 0  9998
2 28480  98.1912 182.8496 0138596 302.4103  56.3734 14.26879234 84047
ARIANE 5 R/B            
1 28499U 04049H   25262.14999723  .00001368  00000+0  15869-3 0  9999
2 28499  98.2469  59.4493 0084927 186.1647 173.8530 14.84703698120335
CZ-2D R/B               
1 28738U 05024B   25262.29817993  .00021818  00000+0  42722-3 0  9993
2 28738  97.3698 267.8459 0003112 309.2584  50.8389 15.47412025113178
ALOS (DAICHI)           
1 28931U 06002A   25261.84058398  .00001471  00000+0  25909-3 0  9992
2 28931  98.0935 214.0234 0002296  94.4307 265.7161 14.69026824 48249
H-2A R/B                
1 28932U 06002B   25262.29050568  .00008360  00000+0  46692-3 0  9990
2 28932  98.2229  30.3437 0057782 103.3169 257.4512 15.12367415 68498
RESURS-DK 1             
1 29228U 06021A   25261.67605813  .00001778  00000+0  11121-3 0  9995
2 29228  69.9348 321.5510 0004806 342.1048  17.9947 15.11441592 61525
CZ-4B R/B               
1 29507U 06046C   25262.10924657  .00004360  00000+0  23599-3 0  9993
2 29507  97.5878 302.4819 0036202 139.4268 220.9672 15.14608128 34058
CZ-2C R/B               
1 31114U 07010B   25261.96337654  .00000102  00000+0  65599-4 0  9997
2 31114  98.3896  18.9191 0060146  73.9657 286.8133 14.20160861955344
COSMO-SKYMED 1          
1 31598U 07023A   25262.27259605  .00003211  00000+0  29993-3 0  9992
2 31598  97.8893  87.1559 0001498  88.6802 271.4590 14.94886283989277
COSMOS 2428             
1 31792U 07029A   25262.27675720 -.00000152  00000+0 -55993-4 0  9997
2 31792  70.9429 203.1834 0003443 203.5237 156.5727 14.12902937939880
SL-16 R/B               
1 31793U 07029B   25262.04761028 -.00000163  00000+0 -59532-4 0  9995
2 31793  70.9755 173.1790 0002734 267.2818 184.2138 14.14790493941098
KORONAS-FOTON           
1 33504U 09003A   25262.27237785  .00010322  00000+0  27148-3 0  9997
2 33504  82.4286  93.4303 0012875  56.1616 304.0852 15.38337514919345
CZ-2C R/B               
1 37731U 11030B   25261.91979722  .00001121  00000+0  15000-3 0  9991
2 37731  97.8254 218.0053 0052966 187.6493 239.3376 14.80466866764675
H-2A R/B                
1 38341U 12025E   25261.84892524  .00002247  00000+0  21525-3 0  9999
2 38341  98.4437 210.6702 0046534 152.8211 207.5457 14.93536322722555
SHIJIAN-16 (SJ-16)      
1 39358U 13057A   25262.23513965  .00001709  00000+0  17282-3 0  9994
2 39358  74.9720 149.4928 0016932 172.5096 187.6348 14.91574454645935
SL-4 R/B                
1 39679U 14021B   25262.24334764  .00010717  00000+0  28110-3 0  9992
2 39679  51.6087  90.2259 0109034 200.0633 159.6046 15.33363703629913
ALOS-2                  
1 39766U 14029A   25262.26959977  .00000085  00000+0  18320-4 0  9998
2 39766  97.9224 358.3221 0001424 101.2689 258.8683 14.79474837611527
YAOGAN-29               
1 41038U 15069A   25262.33404678  .00000426  00000+0  59426-4 0  9990
2 41038  98.0315 285.1886 0002021 139.4578 220.6785 14.82737269530483
ASTRO-H (HITOMI)        
1 41337U 16012A   25261.49076463  .00002791  00000+0  16854-3 0  9998
2 41337  31.0009  26.6106 0010071  43.1563 316.9862 15.08539462526196
HXMT (HUIYAN)           
1 42758U 17034A   25262.29962411  .00004939  00000+0  26975-3 0  9998
2 42758  43.0137 247.7100 0034690 234.2920 125.4697 15.14795224456527
CZ-2C R/B               
1 43521U 18054D   25261.41815777  .00044983  00000+0  54921-3 0  9990
2 43521  35.1378  32.2569 0030536  51.4969 308.8491 15.58775921401673
SAOCOM 1A               
1 43641U 18076A   25262.28371939  .00000462  00000+0  64536-4 0  9998
2 43641  97.8896  87.9159 0001370  91.8459 268.2911 14.82156681375975
H-2A R/B                
1 43682U 18084L   25262.22608669  .00014899  00000+0  46153-3 0  9992
2 43682  98.8833  79.0740 0029984 254.6186 105.1739 15.33146414379439
SAOCOM 1B               
1 46265U 20059A   25262.31495505  .00000457  00000+0  64016-4 0  9994
2 46265  97.8888  87.0533 0001526  88.2482 271.8906 14.82159918273367
CSS (TIANHE)            
1 48274U 21035A   25262.15044570  .00027626  00000+0  33803-3 0  9991
2 48274  41.4646 170.9690 0003038  12.6824 347.4091 15.59762048250812
COSMOS 2550             
1 48865U 21056A   25262.08662682 -.00000212  00000+0 -61128-6 0  9990
2 48865  67.1410 200.0546 0008301 268.2077  91.8127 15.33831306237141
CZ-2C R/B               
1 52794U 22058K   25261.98599246  .00016576  00000+0  35969-3 0  9991
2 52794  50.1918 113.9103 0054130 203.9061 155.9390 15.42924215183521
GSLV R/B                
1 54149U 22138AN  25261.89173158  .00003455  00000+0  30939-3 0  9990
2 54149  87.3800 223.8626 0024706  59.7064 300.6607 14.95298295158246
XRISM                   
1 57800U 23137A   25262.27106593  .00004499  00000+0  27199-3 0  9992
2 57800  31.0025 310.3604 0008215 118.6106 241.5359 15.08977891111859
ACS3                    
1 59588U 24077B   25262.18272319 -.00003030  00000+0 -28303-2 0  9990
2 59588  97.3933 236.3272 0042867 342.4854  17.4824 13.80852854 70459
